NOAA 19
1 33591U 09005A   24329.88726372  .00000435  00000-0  25674-3 0  9997
2 33591  99.0273  27.2372 0013604 195.3916 164.6844 14.13208506814066
NOAA 18
1 28654U 05018A   24329.84155358  .00000471  00000-0  27386-3 0  9999
2 28654  98.8627  45.3893 0013585 331.1063  28.9356 14.13429967  5877
METEOR-3M
1 27001U 01056A   24329.82316641  .00000064  00000-0  12756-3 0  9997
2 27001  99.7918 135.4130 0013251 210.0501 285.1616 13.68982289146986
EROS-B
1 29079U 06014A   24329.87202856  .00036827  00000-0  16193-2 0  9994
2 29079  97.3407  79.2018 0006036  24.3490 335.8030 15.21772984 31892
RADARSAT-2
1 32382U 07061A   24329.96480614  .00000248  00000-0  11293-3 0  9993
2 32382  98.5796 334.0325 0001141  89.8374 270.2939 14.29977548884604
RISAT 1
1 38248U 12017A   24329.87118411  .00024580  00000-0  81587-3 0  9998
2 38248  97.5131 348.5266 0003902  60.9475 299.2156 15.31217715694109
ALOS 2
1 39766U 14029A   24329.87348003  .00005392  00000-0  72831-3 0  9993
2 39766  97.9229  64.2138 0001458 101.0202 259.1173 14.79476969567401
COSMO-SKYMED 1
1 31598U 07023A   24329.87852781  .00001512  00000-0  19657-3 0  9994
2 31598  97.8866 150.7122 0001441  93.3915 266.7463 14.82140980944929
COSMO-SKYMED 2
1 32376U 07059A   24329.84473629  .00001447  00000-0  18813-3 0  9995
2 32376  97.8864 150.6727 0001482  82.2488 277.8894 14.82178653917669
COSMO-SKYMED 3
1 33412U 08054A   24329.84340759  .00009115  00000-0  72436-3 0  9991
2 33412  97.8677 168.1109 0020002  35.6051 324.6502 15.00528324871355
COSMO-SKYMED 4
1 37216U 10060A   24329.92491672  .00001429  00000-0  18598-3 0  9996
2 37216  97.8866 150.7594 0001511  84.5370 275.6015 14.82177251760244
KOMPSAT 2
1 29268U 06031A   24329.90854078  .00000901  00000-0  18039-3 0  9992
2 29268  97.8457 170.7300 0015967  79.7629  32.1233 14.63947455978157
KOMPSAT 3
1 38338U 12025B   24329.92154060  .00001695  00000-0  33627-3 0  9997
2 38338  98.2825 276.5756 0011419  95.6644 264.5860 14.63478803668161
KOMPSAT 5
1 39227U 13042A   24329.85444797  .00004739  00000-0  34218-3 0  9995
2 39227  97.6174 153.5183 0000912 299.9528  60.1608 15.04563777618259
TERRA SAR X
1 31698U 07026A   24329.49708394  .00004267  00000-0  20630-3 0  9999
2 31698  97.4450 334.3668 0001953  82.3916 277.7540 15.19145304966734
TANDEM X
1 36605U 10030A   24329.49708232  .00003775  00000-0  18289-3 0  9992
2 36605  97.4460 334.3673 0001963 103.0225 257.1229 15.19145319800154
PAZ
1 43215U 18020A   24329.93939231  .00005148  00000-0  24823-3 0  9995
2 43215  97.4452 334.5130 0001743  87.6316 272.5118 15.19141332374586
WORLDVIEW 1
1 32060U 07041A   24329.57658386  .00017289  00000-0  70679-3 0  9990
2 32060  97.3911  86.5652 0000525 132.7995 227.3286 15.24422251956157
WORLDVIEW 2
1 35946U 09055A   24329.84527272  .00000354  00000-0  13418-3 0  9995
2 35946  98.4916  40.2707 0005179 111.4975 248.6764 14.37018032793854
WORLDVIEW 3
1 40115U 14048A   24329.86919854  .00002929  00000-0  35242-3 0  9999
2 40115  97.8627  41.0033 0007300  58.4922 301.7004 14.84658704557417
IKONOS 2
1 25919U 99051A   24329.62744704  .00005268  00000-0  50202-3 0  9997
2 25919  98.2083 183.0341 0005294 291.2053  68.8599 14.93821571353771
METEOR-M
1 35865U 09049A   24329.90395440  .00000385  00000-0  19068-3 0  9996
2 35865  98.6578 288.2328 0002784 135.4470 224.6932 14.22882102788281
METEOR-M2
1 40069U 14037A   24329.91842281  .00000443  00000-0  22315-3 0  9996
2 40069  98.4504 317.0961 0004634 247.6366 112.4321 14.21144577538454
KANOPUS-V 1
1 38707U 12039A   24323.81578493  .08695980  26821-5  76758-3 0  9994
2 38707  97.4797 272.4019 0006631 150.5746 270.1213 16.39248839685412
RESURS P1
1 39186U 13030A   24322.87932346  .19438957  23624-5  15676-3 0  9995
2 39186  96.9560  16.4419 0007950 262.9077 216.9341 16.52387254639808
RESURS P2
1 40360U 14087A   24329.91651200  .00125888  00000-0  63323-3 0  9999
2 40360  97.1384  59.3722 0003309  51.5655 308.5911 15.81333248554714
RESURS-P3
1 41386U 16016A   23290.28553760  .00089823  00000-0  42039-3 0  9999
2 41386  97.1662  22.2995 0002936  32.3604 327.7846 15.82992239426089
BKA 2
1 38708U 12039B   24291.25338330  .17019731  26811-5  29005-3 0  9997
2 38708  97.2045 196.3251 0003310 233.3532 256.6219 16.48098683680536
GP-02
1 43943U 19005B   24329.92212567  .00010391  00000-0  57564-3 0  9996
2 43943  97.4872  61.3392 0002392 249.1348 110.9627 15.13996338322835
GP-01
1 43946U 19005E   24329.91992809  .00011628  00000-0  59713-3 0  9994
2 43946  97.4871  61.4586 0013036 106.3037 253.9631 15.16587116322767
GF-2A
1 44777U 19075A   24329.90607259  .00016984  00000-0  75727-3 0  9998
2 44777  97.5597  35.1409 0008583 302.3186  57.7218 15.21449837277811
GF-2B
1 44836U 19086A   24329.91030832  .00016225  00000-0  75912-3 0  9998
2 44836  97.5585  35.5314 0008517 291.5465  68.4861 15.19802962274201
KF-01
1 45016U 20003A   24329.86226010  .00011152  00000-0  59732-3 0  9995
2 45016  97.5652  41.6294 0010544 289.7733  70.2362 15.15137229269363
PLEIADES-1
1 38012U 11076F   24329.88406590  .00001164  00000-0  26017-3 0  9990
2 38012  98.1901  42.1857 0001514  97.6488  37.4949 14.58553046689004
PLEIADES 1B
1 39019U 12068A   24329.89230631  .00001151  00000-0  25728-3 0  9996
2 39019  98.1822  42.0674 0001307  94.4702 265.6646 14.58554250637868
SPOT 6
1 38755U 12047A   24329.87442497  .00001135  00000-0  25407-3 0  9998
2 38755  98.2050  34.6687 0001187  81.4549 278.6785 14.58528258650064
KAZEOSAT 1
1 39731U 14024A   24329.84559704  .00000665  00000-0  21606-3 0  9991
2 39731  98.3821  43.5459 0001037  79.5263 280.6043 14.42000449556501
KAZEOSAT 2
1 40010U 14033A   24329.92377460  .00001641  00000-0  20489-3 0  9992
2 40010  97.5945 187.2641 0011037  47.8933 312.3218 14.83605118564485
SPOT 7
1 40053U 14034A   24329.87993255  .00001460  00000-0  31408-3 0  9992
2 40053  98.1404  33.8610 0001158 104.4337 255.6992 14.59956488554032
TERRA
1 25994U 99068A   24329.94904372  .00001270  00000-0  27249-3 0  9996
2 25994  98.0289  28.5878 0001803 186.6678 298.1234 14.60252756326502
AQUA
1 27424U 02022A   24329.89848279  .00003037  00000-0  63723-3 0  9997
2 27424  98.3512 280.1326 0001249  39.4938  19.7071 14.60388067200126
NPP
1 37849U 11061A   24329.88805214  .00000279  00000-0  15302-3 0  9998
2 37849  98.7379 265.5413 0001917 117.2997 242.8374 14.19503453677674
JPSS-1
1 43013U 17073A   24329.90489333  .00000279  00000-0  15289-3 0  9994
2 43013  98.7220 265.2167 0002312  96.3424 263.8016 14.19573361363701
JPSS-2
1 54234U 22150A   24329.87217831  .00000325  00000-0  17468-3 0  9994
2 54234  98.7073 265.7992 0002173  56.9715 303.1670 14.19553724105771
GP-02
1 43943U 19005B   24329.92212567  .00010391  00000-0  57564-3 0  9996
2 43943  97.4872  61.3392 0002392 249.1348 110.9627 15.13996338322835
GP-01
1 43946U 19005E   24329.91992809  .00011628  00000-0  59713-3 0  9994
2 43946  97.4871  61.4586 0013036 106.3037 253.9631 15.16587116322767
GF-2A
1 44777U 19075A   24329.90607259  .00016984  00000-0  75727-3 0  9998
2 44777  97.5597  35.1409 0008583 302.3186  57.7218 15.21449837277811
GF-2B
1 44836U 19086A   24329.91030832  .00016225  00000-0  75912-3 0  9998
2 44836  97.5585  35.5314 0008517 291.5465  68.4861 15.19802962274201
KF-01
1 45016U 20003A   24329.86226010  .00011152  00000-0  59732-3 0  9995
2 45016  97.5652  41.6294 0010544 289.7733  70.2362 15.15137229269363
METOP-A
1 29499U 06044A   24329.88308206  .00004395  00000-0  53644-3 0  9998
2 29499  98.3446  49.2607 0184660  80.5125 345.7349 14.72433350941565
METOP-B
1 38771U 12049A   24329.86843635  .00000362  00000-0  18487-3 0  9997
2 38771  98.6077  23.3218 0001008  78.9368 281.1923 14.21592455632380
METOP-C
1 43689U 18087A   24329.90915350  .00000364  00000-0  18633-3 0  9993
2 43689  98.7041  27.1407 0001372  35.2426 324.8841 14.21482312313956
SENTINEL 1A
1 39634U 14016A   24329.88200146  .00000615  00000-0  14022-3 0  9990
2 39634  98.1813 334.6671 0001272  89.8410 270.2936 14.59199402566997
SENTINEL 1B
1 41456U 16025A   24329.92520420  .00006897  00000-0  65339-3 0  9997
2 41456  98.1701 356.9613 0016692 214.7948 145.2181 14.93844855458617
SENTINEL 2A
1 40697U 15028A   24329.87183315  .00000417  00000-0  17560-3 0  9992
2 40697  98.5712  41.8222 0000971  94.2508 265.8786 14.30822418492318
SENTINEL 2B
1 42063U 17013A   24329.90682568  .00000416  00000-0  17529-3 0  9999
2 42063  98.5733  41.8507 0001081  93.1195 267.0111 14.30813422403233
SENTINEL 3A
1 41335U 16011A   24329.90207158  .00000382  00000-0  17600-3 0  9997
2 41335  98.6225  34.3812 0001044  86.5944 273.5355 14.26741842456886
ZORKIY
1 57194U 23091AE  24329.90410782  .00017069  00000-0  95135-3 0  9991
2 57194  97.5908  21.0320 0014645 293.3036  66.6653 15.13573035 77762
SIRIUS
1 47951U 21022V   24329.89850758  .00061770  00000-0  15186-2 0  9997
2 47951  97.4401 229.0644 0007380 300.8760  59.1760 15.40398200203175
Zorkiy_2M
1 59062U 24039M   24329.90081466  .00070040  00000-0  14770-2 0  9996
2 59062  97.4075 292.4941 0013252  25.1273 335.0618 15.44893557 41259
A-SEANSAT-PG1
1 57197U 23091AH  24329.88263213  .00019134  00000-0  98466-3 0  9991
2 57197  97.5912  22.4517 0009985 281.1623  78.8487 15.16430633 77850
FENGYUN 3A
1 32958U 08026A   24329.92031731  .00000447  00000-0  23320-3 0  9997
2 32958  98.6247 272.5417 0008318 336.3789  23.7005 14.19287858854649
FENGYUN 3B
1 37214U 10059A   24329.91973588  .00000275  00000-0  16656-3 0  9993
2 37214  99.0399   0.1528 0022122   1.1123  97.6488 14.14627261726934
FENGYUN 3C
1 39260U 13052A   24329.96113976  .00000312  00000-0  17756-3 0  9998
2 39260  98.4393 321.1373 0010286 218.9047 141.1388 14.16350227578025
FENGYUN-3D
1 43010U 17072A   24329.88415175  .00000330  00000-0  17834-3 0  9996
2 43010  98.9343 285.6563 0000713 201.1978 158.9168 14.19503883364216
FENGYUN-3E
1 49008U 21062A   24329.95519867  .00000117  00000-0  75968-4 0  9990
2 49008  98.7385 329.1336 0000693 323.7668  36.3461 14.19816643175800
